{"epoch":1784799577,"count":18318,"objects":[{"id":"63246","name":"LEMUR 2 LEIA-PHILIP","type":"PAYLOAD","l1":"1 63246U 25052AN  26203.68778507  .00000758  00000-0  70138-4 0  9999","l2":"2 63246  97.6785  95.0351 0005090 104.2609 255.9179 14.97398184 73983"},{"id":"63248","name":"LEMUR 2 LIA-MARTIN","type":"PAYLOAD","l1":"1 63248U 25052AQ  26203.27831773  .00003286  00000-0  28273-3 0  9992","l2":"2 63248  97.6844  95.1638 0004750  72.6220 287.5521 14.98060500 73935"},{"id":"63259","name":"LEMUR 2 DELOITTE-1","type":"PAYLOAD","l1":"1 63259U 25052BB  26203.92797230  .00003870  00000-0  33410-3 0  9993","l2":"2 63259  97.6886  96.1336 0002517  54.3603 305.7853 14.97828481 74043"},{"id":"63261","name":"LEMUR 2 EMERSONROSE","type":"PAYLOAD","l1":"1 63261U 25052BD  26203.93437533  .00003638  00000-0  30243-3 0  9997","l2":"2 63261  97.6884  96.7710 0002239  41.2716 318.8676 14.99335715 74095"},{"id":"63262","name":"LEMUR 2 MARACHE-FRAN","type":"PAYLOAD","l1":"1 63262U 25052BE  26203.68506429  .00003943  00000-0  31877-3 0  9994","l2":"2 63262  97.6810  96.8982 0006116 223.0553 137.0193 15.00352389 74087"},{"id":"63264","name":"LEMUR 2 THEFALCONER","type":"PAYLOAD","l1":"1 63264U 25052BG  26203.29145350  .00003077  00000-0  26834-3 0  9990","l2":"2 63264  97.6807  95.0892 0000967 205.9281 154.1893 14.97587786 73948"},{"id":"63351","name":"LEMUR 2 UNTITLED-SC","type":"PAYLOAD","l1":"1 63351U 25061A   26203.92043416  .00003268  00000-0  18451-3 0  9995","l2":"2 63351  97.5660 179.0313 0019934 137.6189 222.6586 15.13683344 72994"},{"id":"63352","name":"LEMUR 2 ESPERANZA","type":"PAYLOAD","l1":"1 63352U 25061B   26203.89522782  .00003464  00000-0  19479-3 0  9999","l2":"2 63352  97.5667 179.1083 0019556 137.0188 223.2575 15.13788423 72999"},{"id":"63353","name":"LEMUR 2 KREMPEL-BRO2","type":"PAYLOAD","l1":"1 63353U 25061C   26203.84594392  .00003439  00000-0  19103-3 0  9997","l2":"2 63353  97.5713 179.6381 0020635 130.2151 230.0890 15.14217263 73002"},{"id":"63354","name":"LEMUR 2 THERMORAPTOR","type":"PAYLOAD","l1":"1 63354U 25061D   26203.89216254  .00003826  00000-0  21164-3 0  9991","l2":"2 63354  97.5719 179.7666 0020375 129.0530 231.2519 15.14300300 73011"},{"id":"63355","name":"LEMUR 2 NEUROSPICY","type":"PAYLOAD","l1":"1 63355U 25061E   26203.92714826  .00003469  00000-0  19179-3 0  9990","l2":"2 63355  97.5645 179.4000 0018216 131.8778 228.4012 15.14419013 73024"},{"id":"63356","name":"LEMUR 2 TILLINFINITY","type":"PAYLOAD","l1":"1 63356U 25061F   26203.88258508  .00004666  00000-0  25228-3 0  9998","l2":"2 63356  97.5632 179.6712 0019614 121.1672 239.1486 15.15007927 73045"},{"id":"63357","name":"LEMUR 2 KREMPEL-BRO1","type":"PAYLOAD","l1":"1 63357U 25061G   26203.72850690  .00003314  00000-0  18122-3 0  9996","l2":"2 63357  97.5632 179.4240 0020259 122.9596 237.3587 15.14808413 73018"},{"id":"63358","name":"LEMUR 2 LANGER2SPACE","type":"PAYLOAD","l1":"1 63358U 25061H   26203.89429564  .00003665  00000-0  20196-3 0  9990","l2":"2 63358  97.5638 179.3885 0018095 130.2936 229.9881 15.14503456 73028"},{"id":"63395","name":"LEMUR 2 BALTO","type":"PAYLOAD","l1":"1 63395U 25052BH  26203.66915470  .00004096  00000-0  33052-3 0  9996","l2":"2 63395  97.6917  96.8811 0004997 294.8468  65.2236 15.00408258 74086"},{"id":"64561","name":"LEMUR 2 KRISH","type":"PAYLOAD","l1":"1 64561U 25135AK  26203.58247404  .00004415  00000-0  39383-3 0  9998","l2":"2 64561  97.7759 318.2257 0001225 110.9382 249.1970 14.96488813 59211"}]}